NANOSAT 1B              
1 35685U 09041E   26068.89252635  .00002414  00000+0  23413-3 0  9999
2 35685  98.1028 184.5560 0050708 130.6650 229.8993 14.92717139899605
STARLINK-5069           
1 55640U 23021N   26068.69807820 -.00000186  00000+0 -78334-5 0  9996
2 55640  70.0013 184.3951 0003255 267.8989  92.1798 14.98330184168796
